STARLINK-35419          
1 66559U 25268C   25338.33335648 -.01925724  00000+0 -16376-1 0  9995
2 66559  42.9992 170.8081 0001633 273.1822 180.9365 15.71621195  3318
STARLINK-35411          
1 66560U 25268D   25338.33335648 -.01927231  00000+0 -16389-1 0  9996
2 66560  42.9991 170.8033 0001585 274.9902 181.0444 15.71622662  3310
STARLINK-35305          
1 66561U 25268E   25338.33335648 -.01926854  00000+0 -16387-1 0  9995
2 66561  42.9992 170.7935 0001484 272.2371 187.6339 15.71621545  3269
STARLINK-35579          
1 66562U 25268F   25338.33335648 -.01929130  00000+0 -16407-1 0  9999
2 66562  42.9992 170.7979 0001512 270.1073 187.8446 15.71623877  3313
STARLINK-35437          
1 66563U 25268G   25338.33335648 -.01928703  00000+0 -16403-1 0  9991
2 66563  42.9992 170.7883 0001554 274.3827 187.4026 15.71623802  3315
STARLINK-35358          
1 66564U 25268H   25338.33335648 -.01928159  00000+0 -16399-1 0  9991
2 66564  42.9991 170.7837 0001522 271.2077 192.4962 15.71622858  3261
STARLINK-35893          
1 66565U 25268J   25338.33335648 -.01921486  00000+0 -16338-1 0  9991
2 66565  42.9991 170.7787 0001608 269.9405 195.6829 15.71617323  3314
STARLINK-35871          
1 66566U 25268K   25338.33335648 -.01920230  00000+0 -16327-1 0  9996
2 66566  42.9992 170.7740 0001610 269.5970 197.9445 15.71615747  3318
STARLINK-35825          
1 66567U 25268L   25338.33335648 -.01928283  00000+0 -16400-1 0  9995
2 66567  42.9991 170.7694 0001456 271.8180 197.6374 15.71622616  3314
STARLINK-35803          
1 66568U 25268M   25338.33335648 -.01927614  00000+0 -16395-1 0  9996
2 66568  42.9991 170.7641 0001329 274.7992 196.5724 15.71622741  3315
STARLINK-35835          
1 66569U 25268N   25338.33335648 -.01929874  00000+0 -16415-1 0  9990
2 66569  42.9991 170.7595 0001420 269.9788 203.3098 15.71624075  3318
STARLINK-35834          
1 66570U 25268P   25338.33335648 -.01914796  00000+0 -16280-1 0  9999
2 66570  42.9991 170.7542 0001545 273.4322 201.7849 15.71608426  3312
STARLINK-35836          
1 66571U 25268Q   25338.33335648 -.01926459  00000+0 -16383-1 0  9993
2 66571  42.9990 170.7499 0001490 275.7569 201.3659 15.71621419  3312
STARLINK-35870          
1 66572U 25268R   25338.33335648 -.01918032  00000+0 -16310-1 0  9992
2 66572  42.9989 170.7455 0001549 267.8851 211.1654 15.71610464  3316
STARLINK-35650          
1 66573U 25268S   25338.33335648 -.01930129  00000+0 -16415-1 0  9990
2 66573  42.9992 170.7400 0001715 270.0146 210.9394 15.71624480  3310
STARLINK-35812          
1 66574U 25268T   25338.33335648 -.01928826  00000+0 -16406-1 0  9992
2 66574  42.9993 170.7346 0001457 273.5212 209.3536 15.71622611  3310
STARLINK-35810          
1 66575U 25268U   25338.33335648 -.01927571  00000+0 -16394-1 0  9995
2 66575  42.9990 170.7302 0001473 270.9833 213.8089 15.71621845  3319
STARLINK-35814          
1 66576U 25268V   25338.33335648 -.01928838  00000+0 -16406-1 0  9997
2 66576  42.9992 170.7249 0001347 274.2916 212.4171 15.71622893  3312
STARLINK-35815          
1 66577U 25268W   25338.33335648 -.01928667  00000+0 -16405-1 0  9997
2 66577  42.9990 170.7206 0001271 271.8118 216.8133 15.71623366  3319
STARLINK-35743          
1 66578U 25268X   25338.33335648 -.01928524  00000+0 -16404-1 0  9999
2 66578  42.9991 170.7157 0001308 271.7511 218.7916 15.71622983  3317
STARLINK-35868          
1 66579U 25268Y   25338.33335648 -.01928081  00000+0 -16398-1 0  9990
2 66579  42.9991 170.7108 0001501 270.8641 221.5952 15.71622578  3315
STARLINK-35872          
1 66580U 25268Z   25338.33335648 -.01918594  00000+0 -16315-1 0  9999
2 66580  42.9990 170.7064 0001446 270.3886 223.9969 15.71612377  3311
STARLINK-35744          
1 66581U 25268AA  25338.33335648 -.01927781  00000+0 -16396-1 0  9997
2 66581  42.9990 170.7009 0001483 270.6477 225.6462 15.71622169  3262
STARLINK-35746          
1 66582U 25268AB  25338.33335648 -.01928845  00000+0 -16406-1 0  9992
2 66582  42.9990 170.6961 0001405 274.5943 223.6156 15.71623296  3310
STARLINK-35941          
1 66583U 25268AC  25338.33335648 -.01919810  00000+0 -16324-1 0  9994
2 66583  42.9991 170.6912 0001451 270.4790 229.6535 15.71615342  3314
STARLINK-35939          
1 66584U 25268AD  25338.33335648 -.01919743  00000+0 -16324-1 0  9990
2 66584  42.9991 170.6869 0001450 268.3987 233.6519 15.71614674  3313
STARLINK-35963          
1 66585U 25268AE  25338.33335648 -.01928915  00000+0 -16406-1 0  9993
2 66585  42.9991 170.6826 0001472 271.9672 231.9929 15.71623467  3318
TJS-21                  
1 66586U 25269A   25326.02704417  .00003197  00000+0  53570-3 0  9990
2 66586  51.0366 174.7096 7517987 225.0489  41.6572  2.00992210    24
CZ-3B R/B               
1 66587U 25269B   25336.42831525  .00047329 -24560-6  19543-2 0  9998
2 66587  51.3575 172.0321 7520347 226.8728  39.3228  2.02231820   242
STARLINK-36076          
1 66588U 25270A   25338.22562814 -.00272201  00000+0 -18067-2 0  9999
2 66588  42.9979 243.3253 0004033 236.1411 123.9075 15.75272333  3014
STARLINK-35447          
1 66589U 25270B   25338.16155285 -.00560228  00000+0 -38488-2 0  9991
2 66589  42.9980 243.7040 0002098 241.4735 118.5923 15.75286516  3113
STARLINK-35429          
1 66590U 25270C   25338.16189400 -.00561656  00000+0 -38569-2 0  9995
2 66590  42.9999 243.7061 0001509 284.7507  75.3195 15.75304786  3112
STARLINK-36058          
1 66591U 25270D   25338.09780095 -.00593875  00000+0 -40705-2 0  9998
2 66591  42.9981 244.0858 0002476 274.5012  85.5575 15.75426072  2997
STARLINK-36066          
1 66592U 25270E   25338.16087574 -.00432621  00000+0 -29277-2 0  9991
2 66592  42.9992 243.6972 0002198 265.4989  94.5629 15.75283675  2906
STARLINK-36031          
1 66593U 25270F   25338.16053443 -.00333622  00000+0 -22283-2 0  9991
2 66593  42.9978 243.6952 0002055 267.9518  92.1116 15.75313834  3004
STARLINK-36032          
1 66594U 25270G   25338.15749379  .00395318  00000+0  22053-2 0  9994
2 66594  42.9975 243.6707 0014657 280.4782  79.4436 15.77380004  2810
STARLINK-35711          
1 66595U 25270H   25338.22327182 -.00003592  00000+0 -20105-4 0  9997
2 66595  42.9987 243.3051 0002032 265.2073  94.8564 15.75230098  3124
STARLINK-35811          
1 66596U 25270J   25338.22293552  .00046843  00000+0  30397-3 0  9998
2 66596  42.9986 243.3027 0002417 252.3696 107.6909 15.75216339  3120
STARLINK-35820          
1 66597U 25270K   25338.03033515 -.02411074  00000+0 -14154-1 0  9996
2 66597  42.9984 244.4384 0020285 309.2244  50.6826 15.80114671  3094
STARLINK-35981          
1 66598U 25270L   25338.22191195 -.00414993  00000+0 -27989-2 0  9999
2 66598  42.9990 243.2951 0002826 278.7151  81.3398 15.75308926  2857
STARLINK-35930          
1 66599U 25270M   25338.03168627 -.00575796  00000+0 -39524-2 0  9990
2 66599  42.9984 244.4479 0001986 267.8069  92.2573 15.75348253  2989
STARLINK-35980          
1 66600U 25270N   25338.15720994  .00507436  00000+0  25461-2 0  9996
2 66600  43.0002 243.6684 0018825 318.1688  41.7743 15.79349544  2909
STARLINK-35978          
1 66601U 25270P   25338.09440144 -.00327668  00000+0 -21838-2 0  9999
2 66601  42.9977 244.0577 0007110 214.9985 145.0417 15.75298164  2838
STARLINK-36050          
1 66602U 25270Q   25337.96663479  .09497794  00000+0  36284-1 0  9998
2 66602  42.9973 244.8203 0026419 271.6989  88.0856 15.81066635  2876
STARLINK-36048          
1 66603U 25270R   25337.90318075  .00531136  00000+0  29394-2 0  9997
2 66603  42.9981 245.2035 0010406 263.8687  96.0997 15.77266061  2865
STARLINK-35977          
1 66604U 25270S   25337.45956710  .00123952  00000+0  71418-3 0  9990
2 66604  42.9996 247.8966 0003942 347.7852  12.2922 15.77554299  2890
STARLINK-36052          
1 66605U 25270T   25338.21989259  .00394919  00000+0  24289-2 0  9996
2 66605  42.9979 243.2778 0002140 231.8120 128.2557 15.75289025  3010
STARLINK-36063          
1 66606U 25270U   25338.09266668 -.06178149  00000+0 -56771-1 0  9998
2 66606  42.9978 244.0430 0031868 182.8429 177.2262 15.70932101  2998
STARLINK-35993          
1 66607U 25270V   25338.02932520 -.00361066  00000+0 -24273-2 0  9998
2 66607  42.9984 244.4293 0001547 280.1184  79.9511 15.75244198  2888
STARLINK-36036          
1 66608U 25270W   25338.21888753  .00139923  00000+0  89242-3 0  9999
2 66608  42.9982 243.2689 0001336 286.6159  73.4563 15.75206645  2850
STARLINK-36034          
1 66609U 25270X   25338.15513681  .00026211  00000+0  17231-3 0  9992
2 66609  42.9993 243.6507 0002031 265.9920  94.0717 15.75158177  2840
STARLINK-35680          
1 66610U 25270Y   25338.15445987  .00330274  00000+0  20651-2 0  9993
2 66610  42.9982 243.6469 0003122 250.5406 109.5126 15.75092921  3119
STARLINK-35583          
1 66611U 25270Z   25338.02763149 -.00288953  00000+0 -19238-2 0  9990
2 66611  42.9983 244.4157 0002117 269.8179  90.2447 15.75261982  3091
STARLINK-36039          
1 66612U 25270AA  25338.21684257 -.00473872  00000+0 -32170-2 0  9990
2 66612  42.9986 243.2518 0002468 288.8631  71.1971 15.75321693  3014
STARLINK-36037          
1 66613U 25270AB  25337.45647043  .00125531  00000+0  72767-3 0  9999
2 66613  43.0001 247.8703 0004122 349.4174  10.6608 15.77412165  2893
STARLINK-36040          
1 66614U 25270AC  25338.08969965 -.00053378  00000+0 -34480-3 0  9991
2 66614  42.9982 244.0184 0001580 273.7322  86.3367 15.75155659  2837
STARLINK-35988          
1 66615U 25270AD  25338.02595770  .00361862  00000+0  20155-2 0  9996
2 66615  42.9993 244.4008 0012646 273.4991  86.4432 15.77540776  2826
STARLINK-35391          
1 66616U 25270AE  25338.08936096 -.00061081  00000+0 -39567-3 0  9993
2 66616  42.9984 244.0161 0002006 260.4817  99.5825 15.75136623  3108
STARLINK-35940          
1 66617U 25271A   25338.30575296 -.00570206  00000+0 -29443-2 0  9996
2 66617  53.1574 228.6482 0000678  40.0862 320.0211 15.81844120  2887
